NORAD_CAT_ID,OBJECT_NAME,OBJECT_TYPE,EPOCH,MEAN_MOTION,ECCENTRICITY,INCLINATION,RA_OF_ASC_NODE,ARG_OF_PERICENTER,MEAN_ANOMALY,BSTAR,MEAN_MOTION_DOT,MEAN_MOTION_DDOT,TLE_LINE0,TLE_LINE1,TLE_LINE2,SEMIMAJOR_AXIS,PERIOD,APOGEE,PERIGEE,DECAYED
51772.0,STARLINK-3623,PAYLOAD,2023-06-21 06:14:18,15.08835993,0.0001261,53.2159,114.3077,95.0742,265.0394,9.5606e-05,1.234e-05,0.0,0 STARLINK-3623,1 51772U 22017E   23172.25993145  .00001234  00000-0  95606-4 0  9997,2 51772  53.2159 114.3077 0001261  95.0742 265.0394 15.08835993 74280,6917.893,95.438,540.63,538.885,0.0
51772.0,STARLINK-3623,PAYLOAD,2023-06-21 12:35:51,15.08822888,0.0001329,53.216,113.1176,97.1159,262.9984,0.00023441,3.443e-05,0.0,0 STARLINK-3623,1 51772U 22017E   23172.52489716  .00003443  00000-0  23441-3 0  9992,2 51772  53.2160 113.1176 0001329  97.1159 262.9984 15.08822888 72816,6917.933,95.439,540.717,538.878,0.0
51772.0,STARLINK-3623,PAYLOAD,2023-06-21 17:22:00,15.08833248,0.0001281,53.2164,112.2277,95.5081,264.6057,-4.7562e-05,-1.045e-05,0.0,0 STARLINK-3623,1 51772U 22017E   23172.72361776 -.00001045  00000-0 -47562-4 0  9998,2 51772  53.2164 112.2277 0001281  95.5081 264.6057 15.08833248 72840,6917.901,95.438,540.652,538.88,0.0
51772.0,STARLINK-3623,PAYLOAD,2023-06-22 12:26:37,15.08837807,0.0001401,53.2176,108.6612,93.4306,266.6846,-1.4869e-06,-3.12e-06,0.0,0 STARLINK-3623,1 51772U 22017E   23173.51849496 -.00000312  00000-0 -14869-5 0  9997,2 51772  53.2176 108.6612 0001401  93.4306 266.6846 15.08837807 74470,6917.887,95.438,540.721,538.783,0.0
51772.0,STARLINK-3623,PAYLOAD,2023-06-24 04:11:16,15.08837973,0.0001187,53.2174,101.2265,82.7885,277.3242,8.4429e-05,1.056e-05,0.0,0 STARLINK-3623,1 51772U 22017E   23175.17449727  .00001056  00000-0  84429-4 0  9996,2 51772  53.2174 101.2265 0001187  82.7885 277.3242 15.08837973 74726,6917.887,95.438,540.573,538.93,0.0
51772.0,STARLINK-3623,PAYLOAD,2023-06-25 11:58:59,15.08846287,0.0001213,53.2173,95.2776,80.7364,279.3766,-5.547e-05,-1.171e-05,0.0,0 STARLINK-3623,1 51772U 22017E   23176.49929694 -.00001171  00000-0 -55470-4 0  9992,2 51772  53.2173  95.2776 0001213  80.7364 279.3766 15.08846287 74927,6917.861,95.437,540.565,538.887,0.0
51772.0,STARLINK-3623,PAYLOAD,2023-06-27 03:43:37,15.08844689,0.0001343,53.2167,87.8445,90.8991,269.2155,5.1589e-05,5.33e-06,0.0,0 STARLINK-3623,1 51772U 22017E   23178.15529601  .00000533  00000-0  51589-4 0  9997,2 51772  53.2167  87.8445 0001343  90.8991 269.2155 15.08844689 75174,6917.866,95.437,540.66,538.802,0.0
51772.0,STARLINK-3623,PAYLOAD,2023-06-28 03:34:24,15.08842854,0.0001253,53.2173,83.3838,82.9786,277.1349,5.8763e-06,-1.94e-06,0.0,0 STARLINK-3623,1 51772U 22017E   23179.14889917 -.00000194  00000-0  58763-5 0  9992,2 51772  53.2173  83.3838 0001253  82.9786 277.1349 15.08842854 75324,6917.872,95.437,540.603,538.87,0.0
51772.0,STARLINK-3623,PAYLOAD,2023-06-29 17:43:40,15.08833343,0.0001321,53.218,76.2464,83.7252,276.389,1.9126e-06,-2.57e-06,0.0,0 STARLINK-3623,1 51772U 22017E   23180.73866770 -.00000257  00000-0  19126-5 0  9991,2 51772  53.2180  76.2464 0001321  83.7252 276.3890 15.08833343 75562,6917.901,95.438,540.68,538.852,0.0
51772.0,STARLINK-3623,PAYLOAD,2023-06-30 15:59:04,15.08835531,0.0001329,53.2183,72.0878,99.1116,261.0027,5.6197e-05,6.06e-06,0.0,0 STARLINK-3623,1 51772U 22017E   23181.66602596  .00000606  00000-0  56197-4 0  9993,2 51772  53.2183  72.0878 0001329  99.1116 261.0027 15.08835531 75706,6917.894,95.438,540.678,538.84,0.0
51772.0,STARLINK-3623,PAYLOAD,2023-07-01 17:25:15,15.08833048,0.0001226,53.2181,67.3279,94.9883,265.1249,2.4904e-05,1.08e-06,0.0,0 STARLINK-3623,1 51772U 22017E   23182.72587139  .00000108  00000-0  24904-4 0  9994,2 51772  53.2181  67.3279 0001226  94.9883 265.1249 15.08833048 75865,6917.902,95.438,540.615,538.919,0.0
51772.0,STARLINK-3623,PAYLOAD,2023-07-02 09:19:06,15.08839871,0.0001114,53.2174,64.3537,88.5867,271.5253,1.2909e-05,-8.2e-07,0.0,0 STARLINK-3623,1 51772U 22017E   23183.38826824 -.00000082  00000-0  12909-4 0  9998,2 51772  53.2174  64.3537 0001114  88.5867 271.5253 15.08839871 75965,6917.881,95.438,540.516,538.975,0.0
51772.0,STARLINK-3623,PAYLOAD,2023-07-04 01:03:44,15.08844799,0.0001072,53.2176,56.9196,78.3858,281.7254,8.1781e-05,1.014e-05,0.0,0 STARLINK-3623,1 51772U 22017E   23185.04426288  .00001014  00000-0  81781-4 0  9992,2 51772  53.2176  56.9196 0001072  78.3858 281.7254 15.08844799 76213,6917.866,95.437,540.472,538.989,0.0
51772.0,STARLINK-3623,PAYLOAD,2023-07-05 02:29:54,15.08848565,0.0001147,53.2179,52.1611,90.2257,269.8866,2.344e-05,8.5e-07,0.0,0 STARLINK-3623,1 51772U 22017E   23186.10410091  .00000085  00000-0  23440-4 0  9990,2 51772  53.2179  52.1611 0001147  90.2257 269.8866 15.08848565 76373,6917.854,95.437,540.513,538.926,0.0
51772.0,STARLINK-3623,PAYLOAD,2023-07-05 16:48:23,15.08829426,0.0001173,53.2188,49.4843,99.0936,261.0189,-1.3118e-05,-4.97e-06,0.0,0 STARLINK-3623,1 51772U 22017E   23186.70027357 -.00000497  00000-0 -13118-4 0  9995,2 51772  53.2188  49.4843 0001173  99.0936 261.0189 15.08829426 76466,6917.913,95.438,540.589,538.966,0.0
51772.0,STARLINK-3623,PAYLOAD,2023-07-05 21:34:32,15.08837075,0.0001349,53.2185,48.5935,94.8008,265.3138,-2.1759e-05,-6.34e-06,0.0,0 STARLINK-3623,1 51772U 22017E   23186.89899147 -.00000634  00000-0 -21759-4 0  9992,2 51772  53.2185  48.5935 0001349  94.8008 265.3138 15.08837075 76496,6917.889,95.438,540.688,538.821,0.0
51772.0,STARLINK-3623,PAYLOAD,2023-07-07 02:11:28,15.08839514,0.0001196,53.2183,43.2416,84.0334,276.0794,0.00020216,2.931e-05,0.0,0 STARLINK-3623,1 51772U 22017E   23188.09130462  .00002931  00000-0  20216-3 0  9990,2 51772  53.2183  43.2416 0001196  84.0334 276.0794 15.08839514 76670,6917.882,95.438,540.574,538.919,0.0
51772.0,STARLINK-3623,PAYLOAD,2023-07-07 18:05:20,15.08837333,0.0001361,53.2176,40.2675,101.242,258.8725,3.2498e-05,2.29e-06,0.0,0 STARLINK-3623,1 51772U 22017E   23188.75371216  .00000229  00000-0  32498-4 0  9991,2 51772  53.2176  40.2675 0001361 101.2420 258.8725 15.08837333 76778,6917.889,95.438,540.695,538.812,0.0
51772.0,STARLINK-3623,PAYLOAD,2023-07-08 00:26:52,15.08844174,0.0001221,53.2183,39.0785,98.3632,261.7499,9.6169e-05,1.243e-05,0.0,0 STARLINK-3623,1 51772U 22017E   23189.01866634  .00001243  00000-0  96169-4 0  9996,2 51772  53.2183  39.0785 0001221  98.3632 261.7499 15.08844174 76817,6917.868,95.437,540.577,538.888,0.0
51772.0,STARLINK-3623,PAYLOAD,2023-07-08 06:48:25,15.08840429,0.0001121,53.218,37.8896,89.4379,270.6742,4.1881e-05,3.79e-06,0.0,0 STARLINK-3623,1 51772U 22017E   23189.28363099  .00000379  00000-0  41881-4 0  9992,2 51772  53.2180  37.8896 0001121  89.4379 270.6742 15.08840429 76854,6917.879,95.438,540.52,538.969,0.0
51772.0,STARLINK-3623,PAYLOAD,2023-07-08 19:31:31,15.08835729,0.0001246,53.219,35.5109,99.1759,260.9374,-5.6829e-05,-1.192e-05,0.0,0 STARLINK-3623,1 51772U 22017E   23189.81355880 -.00001192  00000-0 -56829-4 0  9994,2 51772  53.2190  35.5109 0001246  99.1759 260.9374 15.08835729 76934,6917.893,95.438,540.62,538.896,0.0
51772.0,STARLINK-3623,PAYLOAD,2023-07-09 22:33:03,15.08852238,0.0001074,53.2175,30.4541,89.0816,271.0299,0.00014683,2.051e-05,0.0,0 STARLINK-3623,1 51772U 22017E   23190.93962440  .00002051  00000-0  14683-3 0  9999,2 51772  53.2175  30.4541 0001074  89.0816 271.0299 15.08852238 77105,6917.843,95.437,540.451,538.965,0.0
51772.0,STARLINK-3623,PAYLOAD,2023-07-10 06:29:59,15.08842568,0.0001296,53.218,28.9683,80.4553,279.6586,7.158e-05,8.52e-06,0.0,0 STARLINK-3623,1 51772U 22017E   23191.27083323  .00000852  00000-0  71580-4 0  9998,2 51772  53.2180  28.9683 0001296  80.4553 279.6586 15.08842568 77152,6917.873,95.437,540.634,538.841,0.0
51772.0,STARLINK-3623,PAYLOAD,2023-07-10 19:13:05,15.08834293,0.000139,53.2181,26.5879,81.2112,278.9038,0.00010116,1.322e-05,0.0,0 STARLINK-3623,1 51772U 22017E   23191.80075894  .00001322  00000-0  10116-3 0  9991,2 51772  53.2181  26.5879 0001390  81.2112 278.9038 15.08834293 77238,6917.898,95.438,540.724,538.801,0.0
51772.0,STARLINK-3623,PAYLOAD,2023-07-11 19:03:52,15.08844607,0.0001216,53.2177,22.1276,78.1121,282.0008,0.00010716,1.418e-05,0.0,0 STARLINK-3623,1 51772U 22017E   23192.79435252  .00001418  00000-0  10716-3 0  9990,2 51772  53.2177  22.1276 0001216  78.1121 282.0008 15.08844607 77387,6917.866,95.437,540.573,538.89,0.0
51772.0,STARLINK-3623,PAYLOAD,2023-07-12 12:33:07,15.08836152,0.0001228,53.2177,18.8566,78.097,282.016,7.9795e-05,9.82e-06,0.0,0 STARLINK-3623,1 51772U 22017E   23193.52299894  .00000982  00000-0  79795-4 0  9990,2 51772  53.2177  18.8566 0001228  78.0970 282.0160 15.08836152 77492,6917.892,95.438,540.607,538.908,0.0
51772.0,STARLINK-3623,PAYLOAD,2023-07-13 17:10:03,15.08839124,0.0001203,53.2179,13.5038,87.8068,272.3062,-1.8676e-05,-5.85e-06,0.0,0 STARLINK-3623,1 51772U 22017E   23194.71532040 -.00000585  00000-0 -18676-4 0  9997,2 51772  53.2179  13.5038 0001203  87.8068 272.3062 15.08839124 77674,6917.883,95.438,540.58,538.916,0.0
51772.0,STARLINK-3623,PAYLOAD,2023-07-14 18:36:13,15.0884624,0.0001083,53.2183,8.7498,95.2907,264.8208,0.00019446,2.809e-05,0.0,0 STARLINK-3623,1 51772U 22017E   23195.77515478  .00002809  00000-0  19446-3 0  9994,2 51772  53.2183   8.7498 0001083  95.2907 264.8208 15.08846240 77839,6917.861,95.437,540.476,538.977,0.0
51772.0,STARLINK-3623,PAYLOAD,2023-07-15 04:08:32,15.08837181,0.0001125,53.218,6.9626,84.9166,275.1954,3.5418e-05,2.76e-06,0.0,0 STARLINK-3623,1 51772U 22017E   23196.17259919  .00000276  00000-0  35418-4 0  9998,2 51772  53.2180   6.9626 0001125  84.9166 275.1954 15.08837181 77891,6917.889,95.438,540.532,538.976,0.0
51772.0,STARLINK-3623,PAYLOAD,2023-07-16 10:20:52,15.08833768,0.000119,53.2177,1.3137,93.1602,266.9526,7.6393e-06,-1.66e-06,0.0,0 STARLINK-3623,1 51772U 22017E   23197.43116481 -.00000166  00000-0  76393-5 0  9991,2 51772  53.2177   1.3137 0001190  93.1602 266.9526 15.08833768 78084,6917.899,95.438,540.588,538.941,0.0
